NORAD_CAT_ID,OBJECT_NAME,OBJECT_TYPE,EPOCH,MEAN_MOTION,ECCENTRICITY,INCLINATION,RA_OF_ASC_NODE,ARG_OF_PERICENTER,MEAN_ANOMALY,BSTAR,MEAN_MOTION_DOT,MEAN_MOTION_DDOT,TLE_LINE0,TLE_LINE1,TLE_LINE2,SEMIMAJOR_AXIS,PERIOD,APOGEE,PERIGEE,DECAYED
55778.0,STARLINK-5816,PAYLOAD,2024-08-12 17:36:45,14.98334743,0.0003139,69.9981,231.4582,262.8993,97.1809,8.9941e-05,9.8e-06,0.0,0 STARLINK-5816,1 55778U 23028AP  24225.73385725  .00000980  00000-0  89941-4 0  9994,2 55778  69.9981 231.4582 0003139 262.8993  97.1809 14.98334743 80565,6950.178,96.107,574.225,569.862,0.0
55778.0,STARLINK-5816,PAYLOAD,2024-08-13 11:14:13,14.98335747,0.000294,69.9981,229.6065,264.3152,95.7672,8.5035e-05,9.22e-06,0.0,0 STARLINK-5816,1 55778U 23028AP  24226.46821476  .00000922  00000-0  85035-4 0  9999,2 55778  69.9981 229.6065 0002940 264.3152  95.7672 14.98335747 80672,6950.175,96.107,574.083,569.997,0.0
55778.0,STARLINK-5816,PAYLOAD,2024-08-13 17:38:44,14.98403119,0.0002948,70.0007,228.9307,288.154,71.9298,-0.0014195,-0.00017021,0.0,0 STARLINK-5816,1 55778U 23028AP  24226.73524300 -.00017021  00000-0 -14195-2 0  9992,2 55778  70.0007 228.9307 0002948 288.1540  71.9298 14.98403119 80712,6949.967,96.102,573.881,569.783,0.0
55778.0,STARLINK-5816,PAYLOAD,2024-08-14 06:27:52,14.98317158,0.0003012,69.9983,227.5871,269.7764,90.305,-0.00012271,-1.556e-05,0.0,0 STARLINK-5816,1 55778U 23028AP  24227.26935446 -.00001556  00000-0 -12271-3 0  9998,2 55778  69.9983 227.5871 0003012 269.7764  90.3050 14.98317158 80795,6950.233,96.108,574.191,570.004,0.0
55778.0,STARLINK-5816,PAYLOAD,2024-08-14 09:40:08,14.98315142,0.0003037,69.9982,227.2483,266.8493,93.2318,-0.00011403,-1.453e-05,0.0,0 STARLINK-5816,1 55778U 23028AP  24227.40287624 -.00001453  00000-0 -11403-3 0  9994,2 55778  69.9982 227.2483 0003037 266.8493  93.2318 14.98315142 80817,6950.239,96.108,574.215,569.993,0.0
55778.0,STARLINK-5816,PAYLOAD,2024-08-14 17:40:48,14.98320518,0.0003047,69.9982,226.4085,270.2111,89.8699,-9.4648e-05,-1.222e-05,0.0,0 STARLINK-5816,1 55778U 23028AP  24227.73667470 -.00001222  00000-0 -94648-4 0  9998,2 55778  69.9982 226.4085 0003047 270.2111  89.8699 14.98320518 80864,6950.222,96.108,574.205,569.969,0.0
55778.0,STARLINK-5816,PAYLOAD,2024-08-15 04:53:45,14.98321719,0.0003125,69.9979,225.23,270.2536,89.8265,-4.4493e-05,-6.24e-06,0.0,0 STARLINK-5816,1 55778U 23028AP  24228.20399535 -.00000624  00000-0 -44493-4 0  9993,2 55778  69.9979 225.2300 0003125 270.2536  89.8265 14.98321719 80936,6950.218,96.108,574.255,569.912,0.0
55778.0,STARLINK-5816,PAYLOAD,2024-08-15 09:42:09,14.98325697,0.0003148,69.9979,224.7247,270.4232,89.6567,-2.5303e-05,-3.95e-06,0.0,0 STARLINK-5816,1 55778U 23028AP  24228.40427325 -.00000395  00000-0 -25303-4 0  9998,2 55778  69.9979 224.7247 0003148 270.4232  89.6567 14.98325697 80965,6950.206,96.107,574.259,569.883,0.0
55778.0,STARLINK-5816,PAYLOAD,2024-08-15 17:42:49,14.98328829,0.0003103,69.998,223.883,270.3889,89.6915,-4.6995e-06,-1.49e-06,0.0,0 STARLINK-5816,1 55778U 23028AP  24228.73807187 -.00000149  00000-0 -46995-5 0  9990,2 55778  69.9980 223.8830 0003103 270.3889  89.6915 14.98328829 81017,6950.197,96.107,574.218,569.905,0.0
55778.0,STARLINK-5816,PAYLOAD,2024-08-16 09:44:09,14.98327312,0.0003177,69.998,222.1996,271.6445,88.435,0.00025361,2.934e-05,0.0,0 STARLINK-5816,1 55778U 23028AP  24229.40567122  .00002934  00000-0  25361-3 0  9991,2 55778  69.9980 222.1996 0003177 271.6445  88.4350 14.98327312 81112,6950.201,96.107,574.274,569.858,0.0
55778.0,STARLINK-5816,PAYLOAD,2024-08-17 04:57:46,14.98339573,0.0003179,69.9983,220.1796,271.4927,88.5868,0.00025391,2.939e-05,0.0,0 STARLINK-5816,1 55778U 23028AP  24230.20678409  .00002939  00000-0  25391-3 0  9990,2 55778  69.9983 220.1796 0003179 271.4927  88.5868 14.98339573 81236,6950.163,96.106,574.238,569.819,0.0
55778.0,STARLINK-5816,PAYLOAD,2024-08-17 09:46:09,14.98344985,0.0003182,69.9984,219.6747,271.3473,88.7321,0.00028903,3.359e-05,0.0,0 STARLINK-5816,1 55778U 23028AP  24230.40706008  .00003359  00000-0  28903-3 0  9998,2 55778  69.9984 219.6747 0003182 271.3473  88.7321 14.98344985 81267,6950.147,96.106,574.223,569.8,0.0
55778.0,STARLINK-5816,PAYLOAD,2024-08-18 04:59:47,14.98332182,0.0003257,69.9994,217.6552,267.8744,92.2042,0.00012614,1.412e-05,0.0,0 STARLINK-5816,1 55778U 23028AP  24231.20818640  .00001412  00000-0  12614-3 0  9993,2 55778  69.9994 217.6552 0003257 267.8744  92.2042 14.98332182 81383,6950.186,96.107,574.315,569.787,0.0
55778.0,STARLINK-5816,PAYLOAD,2024-08-18 09:48:11,14.98318949,0.0003224,69.9993,217.1506,269.8871,90.1918,0.00041214,4.827e-05,0.0,0 STARLINK-5816,1 55778U 23028AP  24231.40846996  .00004827  00000-0  41214-3 0  9991,2 55778  69.9993 217.1506 0003224 269.8871  90.1918 14.98318949 81411,6950.227,96.108,574.333,569.851,0.0
55778.0,STARLINK-5816,PAYLOAD,2024-08-18 21:01:07,14.98338073,0.0002731,70.0001,215.9725,264.959,95.1257,-4.3364e-05,-6.1e-06,0.0,0 STARLINK-5816,1 55778U 23028AP  24231.87578289 -.00000610  00000-0 -43364-4 0  9996,2 55778  70.0001 215.9725 0002731 264.9590  95.1257 14.98338073 81487,6950.168,96.106,573.931,570.135,0.0
55778.0,STARLINK-5816,PAYLOAD,2024-08-19 08:14:04,14.98335401,0.000281,69.9998,214.7938,266.0835,94.0003,-7.5528e-05,-9.94e-06,0.0,0 STARLINK-5816,1 55778U 23028AP  24232.34310236 -.00000994  00000-0 -75528-4 0  9997,2 55778  69.9998 214.7938 0002810 266.0835  94.0003 14.98335401 81552,6950.176,96.107,573.994,570.088,0.0
55778.0,STARLINK-5816,PAYLOAD,2024-08-20 05:03:48,14.98329599,0.0002952,69.9993,212.6052,267.4892,92.5929,2.1092e-05,1.59e-06,0.0,0 STARLINK-5816,1 55778U 23028AP  24233.21098223  .00000159  00000-0  21092-4 0  9991,2 55778  69.9993 212.6052 0002952 267.4892  92.5929 14.98329599 81681,6950.194,96.107,574.111,570.007,0.0
55778.0,STARLINK-5816,PAYLOAD,2024-08-20 08:16:04,14.98330498,0.0002947,69.9993,212.2686,267.9152,92.167,2.995e-05,2.64e-06,0.0,0 STARLINK-5816,1 55778U 23028AP  24233.34450144  .00000264  00000-0  29950-4 0  9997,2 55778  69.9993 212.2686 0002947 267.9152  92.1670 14.98330498 81700,6950.191,96.107,574.105,570.008,0.0
55778.0,STARLINK-5816,PAYLOAD,2024-08-21 05:05:49,14.98331792,0.0002994,69.9991,210.0805,268.4271,91.6545,6.2607e-05,6.54e-06,0.0,0 STARLINK-5816,1 55778U 23028AP  24234.21237959  .00000654  00000-0  62607-4 0  9990,2 55778  69.9991 210.0805 0002994 268.4271  91.6545 14.98331792 81834,6950.187,96.107,574.133,569.971,0.0
55778.0,STARLINK-5816,PAYLOAD,2024-08-21 08:18:05,14.98333353,0.0002978,69.9991,209.7439,268.3355,91.7463,7.6928e-05,8.25e-06,0.0,0 STARLINK-5816,1 55778U 23028AP  24234.34589807  .00000825  00000-0  76928-4 0  9997,2 55778  69.9991 209.7439 0002978 268.3355  91.7463 14.98333353 81853,6950.183,96.107,574.117,569.978,0.0
55778.0,STARLINK-5816,PAYLOAD,2024-08-21 21:07:11,14.98321791,0.000284,69.9994,208.398,267.4501,92.6333,-2.3703e-05,-3.76e-06,0.0,0 STARLINK-5816,1 55778U 23028AP  24234.87998907 -.00000376  00000-0 -23703-4 0  9996,2 55778  69.9994 208.3980 0002840 267.4501  92.6333 14.98321791 81931,6950.218,96.108,574.057,570.109,0.0
55778.0,STARLINK-5816,PAYLOAD,2024-08-21 22:43:19,14.98318979,0.0002841,69.9994,208.2285,266.3537,93.7297,-5.6224e-05,-7.64e-06,0.0,0 STARLINK-5816,1 55778U 23028AP  24234.94675192 -.00000764  00000-0 -56224-4 0  9997,2 55778  69.9994 208.2285 0002841 266.3537  93.7297 14.98318979 81942,6950.227,96.108,574.067,570.117,0.0
